[{"OBJECT_NAME":"YAOGAN-28","OBJECT_ID":"2015-064A","EPOCH":"2026-03-09T23:07:10.370208","MEAN_MOTION":15.26008,"ECCENTRICITY":0.00111911,"INCLINATION":97.2901,"RA_OF_ASC_NODE":209.4389,"ARG_OF_PERICENTER":175.4532,"MEAN_ANOMALY":184.6811,"EPHEMERIS_TYPE":0,"CLASSIFICATION_TYPE":"U","NORAD_CAT_ID":41026,"ELEMENT_SET_NO":999,"REV_AT_EPOCH":57554,"BSTAR":0.00039691695,"MEAN_MOTION_DOT":0.00010159,"MEAN_MOTION_DDOT":0},{"OBJECT_NAME":"STARLINK-31851","OBJECT_ID":"2024-097K","EPOCH":"2026-03-09T00:03:16.663680","MEAN_MOTION":15.27574121,"ECCENTRICITY":0.00012883,"INCLINATION":42.9994,"RA_OF_ASC_NODE":278.074,"ARG_OF_PERICENTER":263.3021,"MEAN_ANOMALY":96.7684,"EPHEMERIS_TYPE":0,"CLASSIFICATION_TYPE":"U","NORAD_CAT_ID":59844,"ELEMENT_SET_NO":999,"REV_AT_EPOCH":10181,"BSTAR":-8.01246e-6,"MEAN_MOTION_DOT":-4.82e-6,"MEAN_MOTION_DDOT":0}]
